     2.11           N: GPS NAV DATA                         RINEX VERSION / TYPE
teqc  2019Feb25                         20221121 12:24:59UTCPGM / RUN BY / DATE
OSX ker:10.11.6|Core i5|gcc 4.3 -m64|OSX ker:10.10+|=+      COMMENT
    4.6566D-09  1.4901D-08 -5.9605D-08 -1.1921D-07          ION ALPHA
    8.1920D+04  8.1920D+04 -6.5536D+04 -5.2429D+05          ION BETA
    0.000000000000D+00-6.217248937901D-15   503808     1539 DELTA-UTC: A0,A1,T,W
                                                            END OF HEADER
13 09  7  9  8  0  0.0 3.010546788573D-04 6.821210263297D-13 0.000000000000D+00
    2.700000000000D+01 1.106562500000D+02 3.628008263964D-09 2.630567385805D-01
    5.761161446571D-06 4.149680840783D-03 6.923452019691D-06 5.153685529709D+03
    3.744000000000D+05-9.499490261078D-08 1.003885456910D+00-1.862645149231D-08
    9.947484012066D-01 2.652500000000D+02 1.617903032110D+00-7.711392639028D-09
    6.107397254753D-11 1.000000000000D+00 1.539000000000D+03 0.000000000000D+00
    2.000000000000D+00 0.000000000000D+00-1.117587089539D-08 2.700000000000D+01
    3.672180000000D+05 4.000000000000D+00
30 09  7  9  7 59 28.0 1.596105284989D-04 2.842170943040D-12 0.000000000000D+00
    1.120000000000D+02-1.277812500000D+02 4.312679640418D-09 1.727025611423D+00
   -6.720423698425D-06 1.161314267665D-02 7.726252079010D-06 5.153583534241D+03
    3.743680000000D+05 2.980232238770D-08 2.997096511774D+00-2.980232238770D-07
    9.528938058633D-01 2.273125000000D+02 1.426730897320D+00-8.058907114400D-09
   -5.071639825584D-11 1.000000000000D+00 1.539000000000D+03 0.000000000000D+00
    2.000000000000D+00 0.000000000000D+00-8.381903171539D-09 1.120000000000D+02
    3.672180000000D+05 4.000000000000D+00
29 09  7  9  8  0  0.0 3.778189420700D-05 3.524291969370D-12 0.000000000000D+00
    1.050000000000D+02 3.093750000000D+00 4.465543150654D-09-2.993110781227D+00
   -2.048909664154D-08 3.362076124176D-03 9.456649422646D-06 5.153653509140D+03
    3.744000000000D+05 8.940696716309D-08-2.170465535642D+00 9.685754776001D-08
    9.599030925711D-01 1.919062500000D+02-1.303710774730D+00-7.841398054275D-09
    6.861000073907D-10 1.000000000000D+00 1.539000000000D+03 0.000000000000D+00
    2.000000000000D+00 0.000000000000D+00-8.847564458847D-09 1.050000000000D+02
    3.672180000000D+05 4.000000000000D+00
10 09  7  9  7 59 28.0-1.886812970042D-05-6.821210263297D-13 0.000000000000D+00
    1.430000000000D+02 1.450000000000D+01 4.631264339321D-09 6.304595221526D-01
    1.018866896629D-06 8.562217582949D-03 1.011788845062D-05 5.153633220673D+03
    3.743680000000D+05 3.539025783539D-08-7.794368131861D-02 5.587935447693D-08
    9.580376598969D-01 1.810312500000D+02 6.250740628094D-01-8.030334495665D-09
   -6.575273886550D-10 1.000000000000D+00 1.539000000000D+03 0.000000000000D+00
    2.000000000000D+00 0.000000000000D+00-2.793967723846D-09 1.430000000000D+02
    3.676020000000D+05 4.000000000000D+00
25 09  7  9  7 59 44.0 5.000261589885D-04 1.750777300913D-11 0.000000000000D+00
    6.000000000000D+00 5.750000000000D+00 4.305179328000D-09 2.435262709324D+00
    3.520399332047D-07 1.129767508246D-02 8.679926395416D-07 5.153646343231D+03
    3.743840000000D+05 1.098960638046D-07 1.898721581352D+00 7.636845111847D-08
    9.699173271213D-01 3.660937500000D+02-1.209275906098D+00-8.042120700893D-09
   -1.128618440060D-10 1.000000000000D+00 1.539000000000D+03 0.000000000000D+00
    2.000000000000D+00 0.000000000000D+00-7.450580596924D-09 6.000000000000D+00
    3.690720000000D+05 4.000000000000D+00
24 09  7  9  7 59 28.0 2.030613832176D-04 2.955857780762D-12 0.000000000000D+00
    1.800000000000D+01-4.968750000000D+00 5.299863617736D-09 1.930813555278D+00
   -2.812594175339D-07 6.631334195845D-03 4.950910806656D-06 5.153664239883D+03
    3.743680000000D+05 1.080334186554D-07-1.098401912483D+00 2.421438694000D-08
    9.500602154671D-01 2.781562500000D+02-6.497193404470D-01-8.275701859057D-09
   -1.510777215649D-10 1.000000000000D+00 1.539000000000D+03 0.000000000000D+00
    2.000000000000D+00 0.000000000000D+00-1.396983861923D-09 1.800000000000D+01
    3.701220000000D+05 4.000000000000D+00
16 09  7  9  8  0  0.0 3.451295197010D-05-3.524291969370D-12 0.000000000000D+00
    6.800000000000D+01-1.090312500000D+02 3.975879897071D-09 1.824395825181D+00
   -5.591660737991D-06 5.340108880773D-03 8.165836334229D-06 5.153584115982D+03
    3.744000000000D+05-3.911554813385D-08 3.062525266859D+00 4.284083843231D-08
    9.692577324694D-01 2.270000000000D+02-3.198521323595D-01-7.739608100029D-09
   -9.821837690392D-11 1.000000000000D+00 1.539000000000D+03 0.000000000000D+00
    2.000000000000D+00 0.000000000000D+00-9.778887033463D-09 6.800000000000D+01
    3.713220000000D+05 4.000000000000D+00
 7 09  7  9  8  0  0.0 1.557264477015D-05-6.821210263297D-13 0.000000000000D+00
    9.400000000000D+01-1.746875000000D+01 4.455542734096D-09-2.015458836522D+00
   -8.754432201386D-07 2.810453646816D-03 1.229345798492D-06 5.153659637451D+03
    3.744000000000D+05-1.862645149231D-09 1.993187803244D+00 2.607703208923D-08
    9.677383018647D-01 3.604375000000D+02 2.878544945603D+00-8.273201754918D-09
   -3.107272287506D-11 1.000000000000D+00 1.539000000000D+03 0.000000000000D+00
    2.000000000000D+00 0.000000000000D+00-1.071020960808D-08 9.400000000000D+01
    3.714120000000D+05 4.000000000000D+00
 2 09  7  9 10  0  0.0 1.592594198883D-04 1.591615728103D-12 0.000000000000D+00
    8.900000000000D+01-4.156250000000D+00 5.557731501825D-09 7.063201485664D-01
   -1.974403858185D-07 9.059746982530D-03 4.542991518974D-06 5.153668283463D+03
    3.816000000000D+05 1.732259988785D-07-1.162533458608D+00-7.450580596924D-09
    9.406638341273D-01 2.820937500000D+02 2.858639920456D+00-8.498925442930D-09
    3.000124967247D-11 1.000000000000D+00 1.539000000000D+03 0.000000000000D+00
    2.000000000000D+00 0.000000000000D+00-1.722946763039D-08 8.900000000000D+01
    3.744180000000D+05 4.000000000000D+00
10 09  7  9 10  0  0.0-1.887325197458D-05-6.821210263297D-13 0.000000000000D+00
    1.440000000000D+02 1.178125000000D+01 4.655193907512D-09 1.685306175081D+00
    7.450580596924D-07 8.562142029405D-03 1.039914786816D-05 5.153633579254D+03
    3.816000000000D+05-1.881271600723D-07-7.800255791963D-02 1.639127731323D-07
    9.580336149284D-01 1.809375000000D+02 6.251022649442D-01-7.949616847736D-09
   -4.764484174176D-10 1.000000000000D+00 1.539000000000D+03 0.000000000000D+00
    2.000000000000D+00 0.000000000000D+00-2.793967723846D-09 1.440000000000D+02
    3.744180000000D+05 4.000000000000D+00
24 09  7  9 10  0  0.0 2.030828036368D-04 2.955857780762D-12 0.000000000000D+00
    1.900000000000D+01-5.687500000000D+00 5.224146178086D-09 2.985658613625D+00
   -2.309679985046D-07 6.631201249547D-03 4.874542355537D-06 5.153664541245D+03
    3.816000000000D+05-4.842877388000D-08-1.098462474365D+00 1.583248376846D-07
    9.500598073130D-01 2.771562500000D+02-6.497043806467D-01-8.219985252523D-09
    7.143154683922D-12 1.000000000000D+00 1.539000000000D+03 0.000000000000D+00
    2.000000000000D+00 0.000000000000D+00-1.396983861923D-09 1.900000000000D+01
    3.744180000000D+05 4.000000000000D+00
29 09  7  9 10  0  0.0 3.780657425523D-05 3.524291969370D-12 0.000000000000D+00
    1.150000000000D+02 8.593750000000D+00 4.393397288346D-09-1.943108345988D+00
    6.388872861862D-07 3.362686256878D-03 9.760260581970D-06 5.153651865005D+03
    3.816000000000D+05 2.421438694000D-08-2.170521996965D+00 1.098960638046D-07
    9.599081264722D-01 1.882500000000D+02-1.303520263297D+00-7.843183842946D-09
    7.043150518347D-10 1.000000000000D+00 1.539000000000D+03 0.000000000000D+00
    2.000000000000D+00 0.000000000000D+00-8.847564458847D-09 1.150000000000D+02
    3.744180000000D+05 4.000000000000D+00
13 09  7  9 10  0  0.0 3.010602667928D-04 6.821210263297D-13 0.000000000000D+00
    3.600000000000D+01 1.049062500000D+02 3.655152251763D-09 1.313162804010D+00
    5.185604095459D-06 4.150461871177D-03 7.096678018570D-06 5.153686910629D+03
    3.816000000000D+05-6.891787052155D-08 1.003829882115D+00-9.313225746155D-08
    9.947490024659D-01 2.601562500000D+02 1.617963481348D+00-7.668890868658D-09
    7.286017777600D-11 1.000000000000D+00 1.539000000000D+03 0.000000000000D+00
    2.000000000000D+00 0.000000000000D+00-1.117587089539D-08 3.600000000000D+01
    3.744180000000D+05 4.000000000000D+00
25 09  7  9 10  0  0.0 5.001528188586D-04 1.750777300913D-11 0.000000000000D+00
    7.000000000000D+00 6.281250000000D+00 4.337680681811D-09-2.795408608766D+00
    3.520399332047D-07 1.129730674438D-02 1.220032572746D-06 5.153647081375D+03
    3.816000000000D+05 9.313225746155D-08 1.898663573725D+00 7.636845111847D-08
    9.699164947209D-01 3.629062500000D+02-1.209260257264D+00-8.038191965817D-09
   -1.132190017402D-10 1.000000000000D+00 1.539000000000D+03 0.000000000000D+00
    2.000000000000D+00 0.000000000000D+00-7.450580596924D-09 7.000000000000D+00
    3.744180000000D+05 4.000000000000D+00
 7 09  7  9 10  0  0.0 1.556752249599D-05-6.821210263297D-13 0.000000000000D+00
    9.500000000000D+01-1.328125000000D+01 4.438042005121D-09-9.649732257739D-01
   -6.835907697678D-07 2.810373203829D-03 1.545995473862D-06 5.153661197662D+03
    3.816000000000D+05-4.284083843231D-08 1.993128860812D+00-9.685754776001D-08
    9.677377883804D-01 3.557500000000D+02 2.878247292976D+00-8.257843972348D-09
   -1.382200431339D-10 1.000000000000D+00 1.539000000000D+03 0.000000000000D+00
    2.000000000000D+00 0.000000000000D+00-1.071020960808D-08 9.500000000000D+01
    3.744180000000D+05 4.000000000000D+00
